NORAD_CAT_ID,OBJECT_NAME,OBJECT_TYPE,EPOCH,MEAN_MOTION,ECCENTRICITY,INCLINATION,RA_OF_ASC_NODE,ARG_OF_PERICENTER,MEAN_ANOMALY,BSTAR,MEAN_MOTION_DOT,MEAN_MOTION_DDOT,TLE_LINE0,TLE_LINE1,TLE_LINE2,SEMIMAJOR_AXIS,PERIOD,APOGEE,PERIGEE,DECAYED
55628.0,STARLINK-5484,PAYLOAD,2024-01-16 09:05:07,14.98328547,0.0002445,70.0009,19.5486,259.7318,100.3565,3.9767e-05,3.82e-06,0.0,0 STARLINK-5484,1 55628U 23021A   24016.37855796  .00000382  00000-0  39767-4 0  9996,2 55628  70.0009  19.5486 0002445 259.7318 100.3565 14.98328547 50665,6950.197,96.107,573.762,570.363,0.0
55628.0,STARLINK-5484,PAYLOAD,2024-01-16 12:17:23,14.98333215,0.0002567,70.0008,19.2111,275.4501,84.6365,8.3143e-05,8.99e-06,0.0,0 STARLINK-5484,1 55628U 23021A   24016.51207467  .00000899  00000-0  83143-4 0  9998,2 55628  70.0008  19.2111 0002567 275.4501  84.6365 14.98333215 50985,6950.183,96.107,573.832,570.264,0.0
55628.0,STARLINK-5484,PAYLOAD,2024-01-17 09:07:07,14.98334202,0.0002597,70.0006,17.0232,269.5551,90.531,9.1981e-05,1.005e-05,0.0,0 STARLINK-5484,1 55628U 23021A   24017.37995284  .00001005  00000-0  91981-4 0  9993,2 55628  70.0006  17.0232 0002597 269.5551  90.5310 14.98334202 50810,6950.18,96.107,573.85,570.24,0.0
55628.0,STARLINK-5484,PAYLOAD,2024-01-18 04:20:45,14.98308687,0.0002654,70.0003,15.0025,269.2403,90.8452,0.00039284,4.595e-05,0.0,0 STARLINK-5484,1 55628U 23021A   24018.18108165  .00004595  00000-0  39284-3 0  9991,2 55628  70.0003  15.0025 0002654 269.2403  90.8452 14.98308687 50933,6950.259,96.108,573.968,570.279,0.0
55628.0,STARLINK-5484,PAYLOAD,2024-01-18 09:09:10,14.98287533,0.0002473,70.0005,14.4982,268.0089,92.0787,0.00082542,9.759e-05,0.0,0 STARLINK-5484,1 55628U 23021A   24018.38136940  .00009759  00000-0  82542-3 0  9997,2 55628  70.0005  14.4982 0002473 268.0089  92.0787 14.98287533 50960,6950.324,96.11,573.908,570.47,0.0
55628.0,STARLINK-5484,PAYLOAD,2024-01-19 02:46:37,14.98333434,0.000273,70.0003,12.647,266.7808,93.3039,3.8738e-05,3.69e-06,0.0,0 STARLINK-5484,1 55628U 23021A   24019.11571402  .00000369  00000-0  38738-4 0  9992,2 55628  70.0003  12.6470 0002730 266.7808  93.3039 14.98333434 51079,6950.182,96.107,573.945,570.15,0.0
55628.0,STARLINK-5484,PAYLOAD,2024-01-19 09:11:09,14.98335604,0.0002733,70.0005,11.974,267.2887,92.7959,6.063e-05,6.31e-06,0.0,0 STARLINK-5484,1 55628U 23021A   24019.38275186  .00000631  00000-0  60630-4 0  9999,2 55628  70.0005  11.9740 0002733 267.2887  92.7959 14.98335604 51412,6950.176,96.107,573.94,570.141,0.0
55628.0,STARLINK-5484,PAYLOAD,2024-01-20 02:48:38,14.98327728,0.0002743,70.0007,10.1225,266.4649,93.6197,4.6114e-05,4.57e-06,0.0,0 STARLINK-5484,1 55628U 23021A   24020.11711678  .00000457  00000-0  46114-4 0  9990,2 55628  70.0007  10.1225 0002743 266.4649  93.6197 14.98327728 51222,6950.2,96.107,573.971,570.158,0.0
55628.0,STARLINK-5484,PAYLOAD,2024-01-20 09:13:10,14.98331483,0.0002704,70.0008,9.4494,265.9166,94.1683,8.8447e-05,9.63e-06,0.0,0 STARLINK-5484,1 55628U 23021A   24020.38415384  .00000963  00000-0  88447-4 0  9991,2 55628  70.0008   9.4494 0002704 265.9166  94.1683 14.98331483 51563,6950.188,96.107,573.933,570.174,0.0
55628.0,STARLINK-5484,PAYLOAD,2024-01-21 02:50:39,14.98332544,0.0002626,70.0011,7.5988,263.8638,96.2221,4.3451e-05,4.26e-06,0.0,0 STARLINK-5484,1 55628U 23021A   24021.11851354  .00000426  00000-0  43451-4 0  9994,2 55628  70.0011   7.5988 0002626 263.8638  96.2221 14.98332544 51377,6950.185,96.107,573.875,570.225,0.0
55628.0,STARLINK-5484,PAYLOAD,2024-01-21 06:02:55,14.9833286,0.0002623,70.0011,7.2621,263.7931,96.2929,4.8431e-05,4.85e-06,0.0,0 STARLINK-5484,1 55628U 23021A   24021.25203350  .00000485  00000-0  48431-4 0  9994,2 55628  70.0011   7.2621 0002623 263.7931  96.2929 14.98332860 51691,6950.184,96.107,573.872,570.226,0.0
55628.0,STARLINK-5484,PAYLOAD,2024-01-21 22:04:16,14.98332321,0.0002621,70.001,5.578,260.6858,99.4004,6.9078e-05,7.31e-06,0.0,0 STARLINK-5484,1 55628U 23021A   24021.91963173  .00000731  00000-0  69078-4 0  9997,2 55628  70.0010   5.5780 0002621 260.6858  99.4004 14.98332321 51791,6950.186,96.107,573.872,570.229,0.0
55628.0,STARLINK-5484,PAYLOAD,2024-01-22 02:52:40,14.98331506,0.0002621,70.001,5.0726,261.5036,98.5826,5.8494e-05,6.05e-06,0.0,0 STARLINK-5484,1 55628U 23021A   24022.11991236  .00000605  00000-0  58494-4 0  9991,2 55628  70.0010   5.0726 0002621 261.5036  98.5826 14.98331506 51521,6950.188,96.107,573.875,570.232,0.0
55628.0,STARLINK-5484,PAYLOAD,2024-01-22 06:04:56,14.98332916,0.0002596,70.0011,4.7361,261.8825,98.2039,7.6868e-05,8.24e-06,0.0,0 STARLINK-5484,1 55628U 23021A   24022.25343142  .00000824  00000-0  76868-4 0  9991,2 55628  70.0011   4.7361 0002596 261.8825  98.2039 14.98332916 51847,6950.184,96.107,573.853,570.245,0.0
55628.0,STARLINK-5484,PAYLOAD,2024-01-22 07:41:03,14.98367588,0.0002957,70.0011,4.5676,267.3689,92.7132,-0.00052301,-6.334e-05,0.0,0 STARLINK-5484,1 55628U 23021A   24022.32018096 -.00006334  00000-0 -52301-3 0  9995,2 55628  70.0011   4.5676 0002957 267.3689  92.7132 14.98367588 51558,6950.077,96.105,573.997,569.887,0.0
55628.0,STARLINK-5484,PAYLOAD,2024-01-23 02:54:41,14.98331794,0.0002663,70.0012,2.5486,262.6382,97.4475,5.9902e-05,6.22e-06,0.0,0 STARLINK-5484,1 55628U 23021A   24023.12131101  .00000622  00000-0  59902-4 0  9994,2 55628  70.0012   2.5486 0002663 262.6382  97.4475 14.98331794 51673,6950.187,96.107,573.903,570.202,0.0
55628.0,STARLINK-5484,PAYLOAD,2024-01-23 06:06:57,14.98333372,0.0002609,70.0013,2.2118,261.3768,98.7095,8.0494e-05,8.68e-06,0.0,0 STARLINK-5484,1 55628U 23021A   24023.25482992  .00000868  00000-0  80494-4 0  9997,2 55628  70.0013   2.2118 0002609 261.3768  98.7095 14.98333372 51998,6950.182,96.107,573.861,570.234,0.0
55628.0,STARLINK-5484,PAYLOAD,2024-01-23 07:43:05,14.98333533,0.0002599,70.0012,2.0429,263.5392,96.5471,8.4501e-05,9.16e-06,0.0,0 STARLINK-5484,1 55628U 23021A   24023.32158890  .00000916  00000-0  84501-4 0  9999,2 55628  70.0012   2.0429 0002599 263.5392  96.5471 14.98333533 52001,6950.182,96.107,573.853,570.241,0.0
55628.0,STARLINK-5484,PAYLOAD,2024-01-24 02:56:42,14.9832795,0.0002576,70.0015,0.0237,259.8265,100.2604,2.5284e-06,-6.3e-07,0.0,0 STARLINK-5484,1 55628U 23021A   24024.12271314 -.00000063  00000-0  25284-5 0  9993,2 55628  70.0015   0.0237 0002576 259.8265 100.2604 14.98327950 51827,6950.199,96.107,573.855,570.274,0.0
55628.0,STARLINK-5484,PAYLOAD,2024-01-24 07:45:06,14.9834751,0.0002519,70.0018,359.5199,258.1399,101.9477,-0.00033936,-4.141e-05,0.0,0 STARLINK-5484,1 55628U 23021A   24024.32298771 -.00004141  00000-0 -33936-3 0  9994,2 55628  70.0018 359.5199 0002519 258.1399 101.9477 14.98347510 51859,6950.139,96.106,573.754,570.253,0.0
55628.0,STARLINK-5484,PAYLOAD,2024-01-25 02:58:43,14.98332475,0.000261,70.0018,357.4999,251.6574,108.4302,2.9099e-05,2.54e-06,0.0,0 STARLINK-5484,1 55628U 23021A   24025.12410944  .00000254  00000-0  29099-4 0  9996,2 55628  70.0018 357.4999 0002610 251.6574 108.4302 14.98332475 51975,6950.185,96.107,573.864,570.236,0.0
55628.0,STARLINK-5484,PAYLOAD,2024-01-25 07:47:07,14.98331569,0.0002626,70.0017,356.9946,253.3939,106.6932,1.7902e-05,1.21e-06,0.0,0 STARLINK-5484,1 55628U 23021A   24025.32439052  .00000121  00000-0  17902-4 0  9992,2 55628  70.0017 356.9946 0002626 253.3939 106.6932 14.98331569 52301,6950.188,96.107,573.878,570.228,0.0
55628.0,STARLINK-5484,PAYLOAD,2024-01-25 22:12:19,14.98330296,0.0002732,70.0016,355.4798,254.154,105.9318,7.2779e-05,7.76e-06,0.0,0 STARLINK-5484,1 55628U 23021A   24025.92522926  .00000776  00000-0  72779-4 0  9990,2 55628  70.0016 355.4798 0002732 254.1540 105.9318 14.98330296 52399,6950.192,96.107,573.956,570.158,0.0
55628.0,STARLINK-5484,PAYLOAD,2024-01-26 03:00:44,14.98330378,0.0002727,70.0016,354.9751,254.6105,105.4753,7.07e-05,7.51e-06,0.0,0 STARLINK-5484,1 55628U 23021A   24026.12550936  .00000751  00000-0  70700-4 0  9990,2 55628  70.0016 354.9751 0002727 254.6105 105.4753 14.98330378 52128,6950.192,96.107,573.952,570.161,0.0
55628.0,STARLINK-5484,PAYLOAD,2024-01-26 07:49:08,14.98331722,0.0002709,70.0016,354.4699,256.1962,103.8895,8.7306e-05,9.49e-06,0.0,0 STARLINK-5484,1 55628U 23021A   24026.32578877  .00000949  00000-0  87306-4 0  9995,2 55628  70.0016 354.4699 0002709 256.1962 103.8895 14.98331722 52451,6950.188,96.107,573.935,570.17,0.0
55628.0,STARLINK-5484,PAYLOAD,2024-01-27 03:02:44,14.98332681,0.0002636,70.0017,352.4497,258.0895,101.9969,6.0877e-05,6.34e-06,0.0,0 STARLINK-5484,1 55628U 23021A   24027.12690811  .00000634  00000-0  60877-4 0  9992,2 55628  70.0017 352.4497 0002636 258.0895 101.9969 14.98332681 52277,6950.185,96.107,573.882,570.218,0.0
55628.0,STARLINK-5484,PAYLOAD,2024-01-27 07:51:08,14.98337448,0.0002617,70.002,351.9459,251.6037,108.4838,0.00011477,1.277e-05,0.0,0 STARLINK-5484,1 55628U 23021A   24027.32718329  .00001277  00000-0  11477-3 0  9994,2 55628  70.0020 351.9459 0002617 251.6037 108.4838 14.98337448 52609,6950.17,96.107,573.854,570.216,0.0
55628.0,STARLINK-5484,PAYLOAD,2024-01-27 22:16:21,14.98329774,0.000215,70.0033,350.4293,241.4222,118.672,8.5845e-05,9.32e-06,0.0,0 STARLINK-5484,1 55628U 23021A   24027.92802712  .00000932  00000-0  85845-4 0  9998,2 55628  70.0033 350.4293 0002150 241.4222 118.6720 14.98329774 52693,6950.194,96.107,573.553,570.564,0.0
55628.0,STARLINK-5484,PAYLOAD,2024-01-28 04:40:54,14.98325846,0.0002417,70.0024,349.7566,251.5877,108.5019,-2.1841e-06,-1.19e-06,0.0,0 STARLINK-5484,1 55628U 23021A   24028.19507227 -.00000119  00000-0 -21841-5 0  9997,2 55628  70.0024 349.7566 0002417 251.5877 108.5019 14.98325846 52438,6950.206,96.107,573.751,570.391,0.0
55628.0,STARLINK-5484,PAYLOAD,2024-01-28 07:53:10,14.98327063,0.0002402,70.0025,349.4198,252.3171,107.7726,-5.0193e-06,-1.53e-06,0.0,0 STARLINK-5484,1 55628U 23021A   24028.32859190 -.00000153  00000-0 -50193-5 0  9991,2 55628  70.0025 349.4198 0002402 252.3171 107.7726 14.98327063 52751,6950.202,96.107,573.736,570.398,0.0
